STARLINK-34364          
1 64495U 25133Z   25309.35736520  .00027948  00000+0  95206-3 0  9996
2 64495  53.1592 332.0769 0001198  82.6790 277.4347 15.30204284 22182
STARLINK-34268          
1 64496U 25133AA  25309.48874573  .00083466  00000+0  20714-2 0  9990
2 64496  53.1595 334.3345 0001316 112.9540 247.1604 15.39656304 22164
STARLINK-34363          
1 64497U 25133AB  25309.48408499  .00036787  00000+0  92450-3 0  9992
2 64497  53.1596 334.3057 0001300  85.1367 274.9787 15.39643531 22165
STARLINK-34427          
1 64498U 25133AC  25309.54866214  .00050098  00000+0  12531-2 0  9995
2 64498  53.1594 333.9967 0001390  93.4765 266.6399 15.39646351 22173
STARLINK-34280          
1 64594U 25137A   25309.67259340  .00052631  00000+0  13145-2 0  9993
2 64594  53.1596 195.8137 0001666  91.7287 268.3908 15.39669510 21684
STARLINK-34517          
1 64595U 25137B   25309.96465783  .00061647  00000+0  15381-2 0  9997
2 64595  53.1589 194.0790 0001322  86.9737 273.1419 15.39631416 21739
STARLINK-34510          
1 64596U 25137C   25309.72357478  .00047502  00000+0  11888-2 0  9995
2 64596  53.1577 195.4201 0001084 101.2563 258.8564 15.39654259 21698
STARLINK-34486          
1 64597U 25137D   25309.69107161  .00066737  00000+0  16608-2 0  9990
2 64597  53.1588 195.2142 0000652  37.7969 322.3082 15.39674935 21691
STARLINK-34463          
1 64598U 25137E   25309.42212632  .00042654  00000+0  10692-2 0  9991
2 64598  53.1615 196.3797 0000597  99.6008 260.5064 15.39652948 21659
STARLINK-34294          
1 64599U 25137F   25309.97394427  .00013892  00000+0  35629-3 0  9995
2 64599  53.1575 194.1385 0000959  77.8210 282.2903 15.39650878 21731
STARLINK-34504          
1 64600U 25137G   25309.40828816  .00047600  00000+0  11924-2 0  9995
2 64600  53.1612 197.0075 0002308  73.8518 286.2741 15.39624019 21643
STARLINK-34508          
1 64601U 25137H   25309.97859366  .00059009  00000+0  14721-2 0  9996
2 64601  53.1581 194.1672 0001491  76.1009 284.0162 15.39655993 21731
STARLINK-34435          
1 64602U 25137J   25309.70035493  .00050711  00000+0  12677-2 0  9994
2 64602  53.1597 195.2716 0001226 309.1025  50.9871 15.39658252 21696
STARLINK-34475          
1 64603U 25137K   25308.72199494  .00045340  00000+0  11354-2 0  9991
2 64603  53.1578 199.8304 0001383  89.6428 270.4735 15.39654665 21546
STARLINK-34488          
1 64604U 25137L   25309.66330481  .00046549  00000+0  11655-2 0  9995
2 64604  53.1605 195.7537 0001494  94.8300 265.2875 15.39649939 21681
STARLINK-34516          
1 64605U 25137M   25309.70964423  .00049673  00000+0  12415-2 0  9996
2 64605  53.1583 195.3299 0002095  93.6648 266.4597 15.39673995 21793
