[{"OBJECT_NAME":"STARLINK-34364","OBJECT_ID":"2025-133Z","EPOCH":"2025-11-05T08:34:36.353280","MEAN_MOTION":15.30204284,"ECCENTRICITY":0.00011982,"INCLINATION":53.1592,"RA_OF_ASC_NODE":332.0769,"ARG_OF_PERICENTER":82.679,"MEAN_ANOMALY":277.4347,"EPHEMERIS_TYPE":0,"CLASSIFICATION_TYPE":"U","NORAD_CAT_ID":64495,"ELEMENT_SET_NO":999,"REV_AT_EPOCH":2218,"BSTAR":0.00095206211,"MEAN_MOTION_DOT":0.00027948,"MEAN_MOTION_DDOT":0},{"OBJECT_NAME":"STARLINK-34268","OBJECT_ID":"2025-133AA","EPOCH":"2025-11-05T11:43:47.631072","MEAN_MOTION":15.39656304,"ECCENTRICITY":0.00013169,"INCLINATION":53.1595,"RA_OF_ASC_NODE":334.3345,"ARG_OF_PERICENTER":112.954,"MEAN_ANOMALY":247.1604,"EPHEMERIS_TYPE":0,"CLASSIFICATION_TYPE":"U","NORAD_CAT_ID":64496,"ELEMENT_SET_NO":999,"REV_AT_EPOCH":2216,"BSTAR":0.0020713787,"MEAN_MOTION_DOT":0.00083466,"MEAN_MOTION_DDOT":0},{"OBJECT_NAME":"STARLINK-34363","OBJECT_ID":"2025-133AB","EPOCH":"2025-11-05T11:37:04.943136","MEAN_MOTION":15.39643531,"ECCENTRICITY":0.00013008,"INCLINATION":53.1596,"RA_OF_ASC_NODE":334.3057,"ARG_OF_PERICENTER":85.1367,"MEAN_ANOMALY":274.9787,"EPHEMERIS_TYPE":0,"CLASSIFICATION_TYPE":"U","NORAD_CAT_ID":64497,"ELEMENT_SET_NO":999,"REV_AT_EPOCH":2216,"BSTAR":0.00092449807,"MEAN_MOTION_DOT":0.00036787,"MEAN_MOTION_DDOT":0},{"OBJECT_NAME":"STARLINK-34427","OBJECT_ID":"2025-133AC","EPOCH":"2025-11-05T13:10:04.408896","MEAN_MOTION":15.39646351,"ECCENTRICITY":0.00013904,"INCLINATION":53.1594,"RA_OF_ASC_NODE":333.9967,"ARG_OF_PERICENTER":93.4765,"MEAN_ANOMALY":266.6399,"EPHEMERIS_TYPE":0,"CLASSIFICATION_TYPE":"U","NORAD_CAT_ID":64498,"ELEMENT_SET_NO":999,"REV_AT_EPOCH":2217,"BSTAR":0.0012531189,"MEAN_MOTION_DOT":0.00050098,"MEAN_MOTION_DDOT":0},{"OBJECT_NAME":"STARLINK-34280","OBJECT_ID":"2025-137A","EPOCH":"2025-11-05T16:08:32.069760","MEAN_MOTION":15.3966951,"ECCENTRICITY":0.00016663,"INCLINATION":53.1596,"RA_OF_ASC_NODE":195.8137,"ARG_OF_PERICENTER":91.7287,"MEAN_ANOMALY":268.3908,"EPHEMERIS_TYPE":0,"CLASSIFICATION_TYPE":"U","NORAD_CAT_ID":64594,"ELEMENT_SET_NO":999,"REV_AT_EPOCH":2168,"BSTAR":0.0013145385,"MEAN_MOTION_DOT":0.00052631,"MEAN_MOTION_DDOT":0},{"OBJECT_NAME":"STARLINK-34517","OBJECT_ID":"2025-137B","EPOCH":"2025-11-05T23:09:06.436512","MEAN_MOTION":15.39631416,"ECCENTRICITY":0.00013221,"INCLINATION":53.1589,"RA_OF_ASC_NODE":194.079,"ARG_OF_PERICENTER":86.9737,"MEAN_ANOMALY":273.1419,"EPHEMERIS_TYPE":0,"CLASSIFICATION_TYPE":"U","NORAD_CAT_ID":64595,"ELEMENT_SET_NO":999,"REV_AT_EPOCH":2173,"BSTAR":0.0015381383,"MEAN_MOTION_DOT":0.00061647,"MEAN_MOTION_DDOT":0},{"OBJECT_NAME":"STARLINK-34510","OBJECT_ID":"2025-137C","EPOCH":"2025-11-05T17:21:56.860992","MEAN_MOTION":15.39654259,"ECCENTRICITY":0.00010848,"INCLINATION":53.1577,"RA_OF_ASC_NODE":195.4201,"ARG_OF_PERICENTER":101.2563,"MEAN_ANOMALY":258.8564,"EPHEMERIS_TYPE":0,"CLASSIFICATION_TYPE":"U","NORAD_CAT_ID":64596,"ELEMENT_SET_NO":999,"REV_AT_EPOCH":2169,"BSTAR":0.0011888065,"MEAN_MOTION_DOT":0.00047502,"MEAN_MOTION_DDOT":0},{"OBJECT_NAME":"STARLINK-34486","OBJECT_ID":"2025-137D","EPOCH":"2025-11-05T16:35:08.587104","MEAN_MOTION":15.39674935,"ECCENTRICITY":6.525e-5,"INCLINATION":53.1588,"RA_OF_ASC_NODE":195.2142,"ARG_OF_PERICENTER":37.7969,"MEAN_ANOMALY":322.3082,"EPHEMERIS_TYPE":0,"CLASSIFICATION_TYPE":"U","NORAD_CAT_ID":64597,"ELEMENT_SET_NO":999,"REV_AT_EPOCH":2169,"BSTAR":0.0016608354,"MEAN_MOTION_DOT":0.00066737,"MEAN_MOTION_DDOT":0},{"OBJECT_NAME":"STARLINK-34463","OBJECT_ID":"2025-137E","EPOCH":"2025-11-05T10:07:51.714048","MEAN_MOTION":15.39652948,"ECCENTRICITY":5.976e-5,"INCLINATION":53.1615,"RA_OF_ASC_NODE":196.3797,"ARG_OF_PERICENTER":99.6008,"MEAN_ANOMALY":260.5064,"EPHEMERIS_TYPE":0,"CLASSIFICATION_TYPE":"U","NORAD_CAT_ID":64598,"ELEMENT_SET_NO":999,"REV_AT_EPOCH":2165,"BSTAR":0.0010692051,"MEAN_MOTION_DOT":0.00042654,"MEAN_MOTION_DDOT":0},{"OBJECT_NAME":"STARLINK-34294","OBJECT_ID":"2025-137F","EPOCH":"2025-11-05T23:22:28.784928","MEAN_MOTION":15.39650878,"ECCENTRICITY":9.599e-5,"INCLINATION":53.1575,"RA_OF_ASC_NODE":194.1385,"ARG_OF_PERICENTER":77.821,"MEAN_ANOMALY":282.2903,"EPHEMERIS_TYPE":0,"CLASSIFICATION_TYPE":"U","NORAD_CAT_ID":64599,"ELEMENT_SET_NO":999,"REV_AT_EPOCH":2173,"BSTAR":0.00035628957,"MEAN_MOTION_DOT":0.00013892,"MEAN_MOTION_DDOT":0},{"OBJECT_NAME":"STARLINK-34504","OBJECT_ID":"2025-137G","EPOCH":"2025-11-05T09:47:56.097024","MEAN_MOTION":15.39624019,"ECCENTRICITY":0.00023087,"INCLINATION":53.1612,"RA_OF_ASC_NODE":197.0075,"ARG_OF_PERICENTER":73.8518,"MEAN_ANOMALY":286.2741,"EPHEMERIS_TYPE":0,"CLASSIFICATION_TYPE":"U","NORAD_CAT_ID":64600,"ELEMENT_SET_NO":999,"REV_AT_EPOCH":2164,"BSTAR":0.0011923555,"MEAN_MOTION_DOT":0.000476,"MEAN_MOTION_DDOT":0},{"OBJECT_NAME":"STARLINK-34508","OBJECT_ID":"2025-137H","EPOCH":"2025-11-05T23:29:10.492224","MEAN_MOTION":15.39655993,"ECCENTRICITY":0.00014913,"INCLINATION":53.1581,"RA_OF_ASC_NODE":194.1672,"ARG_OF_PERICENTER":76.1009,"MEAN_ANOMALY":284.0162,"EPHEMERIS_TYPE":0,"CLASSIFICATION_TYPE":"U","NORAD_CAT_ID":64601,"ELEMENT_SET_NO":999,"REV_AT_EPOCH":2173,"BSTAR":0.0014720652,"MEAN_MOTION_DOT":0.00059009,"MEAN_MOTION_DDOT":0},{"OBJECT_NAME":"STARLINK-34435","OBJECT_ID":"2025-137J","EPOCH":"2025-11-05T16:48:30.665952","MEAN_MOTION":15.39658252,"ECCENTRICITY":0.00012266,"INCLINATION":53.1597,"RA_OF_ASC_NODE":195.2716,"ARG_OF_PERICENTER":309.1025,"MEAN_ANOMALY":50.9871,"EPHEMERIS_TYPE":0,"CLASSIFICATION_TYPE":"U","NORAD_CAT_ID":64602,"ELEMENT_SET_NO":999,"REV_AT_EPOCH":2169,"BSTAR":0.0012677486,"MEAN_MOTION_DOT":0.00050711,"MEAN_MOTION_DDOT":0},{"OBJECT_NAME":"STARLINK-34475","OBJECT_ID":"2025-137K","EPOCH":"2025-11-04T17:19:40.362816","MEAN_MOTION":15.39654665,"ECCENTRICITY":0.0001383,"INCLINATION":53.1578,"RA_OF_ASC_NODE":199.8304,"ARG_OF_PERICENTER":89.6428,"MEAN_ANOMALY":270.4735,"EPHEMERIS_TYPE":0,"CLASSIFICATION_TYPE":"U","NORAD_CAT_ID":64603,"ELEMENT_SET_NO":999,"REV_AT_EPOCH":2154,"BSTAR":0.0011354424,"MEAN_MOTION_DOT":0.0004534,"MEAN_MOTION_DDOT":0},{"OBJECT_NAME":"STARLINK-34488","OBJECT_ID":"2025-137L","EPOCH":"2025-11-05T15:55:09.535584","MEAN_MOTION":15.39649939,"ECCENTRICITY":0.00014947,"INCLINATION":53.1605,"RA_OF_ASC_NODE":195.7537,"ARG_OF_PERICENTER":94.83,"MEAN_ANOMALY":265.2875,"EPHEMERIS_TYPE":0,"CLASSIFICATION_TYPE":"U","NORAD_CAT_ID":64604,"ELEMENT_SET_NO":999,"REV_AT_EPOCH":2168,"BSTAR":0.001165452,"MEAN_MOTION_DOT":0.00046549,"MEAN_MOTION_DDOT":0},{"OBJECT_NAME":"STARLINK-34516","OBJECT_ID":"2025-137M","EPOCH":"2025-11-05T17:01:53.261472","MEAN_MOTION":15.39673995,"ECCENTRICITY":0.00020955,"INCLINATION":53.1583,"RA_OF_ASC_NODE":195.3299,"ARG_OF_PERICENTER":93.6648,"MEAN_ANOMALY":266.4597,"EPHEMERIS_TYPE":0,"CLASSIFICATION_TYPE":"U","NORAD_CAT_ID":64605,"ELEMENT_SET_NO":999,"REV_AT_EPOCH":2179,"BSTAR":0.0012415023,"MEAN_MOTION_DOT":0.00049673,"MEAN_MOTION_DDOT":0}]
